CCSDS_OMM_VERS = 2.0
CREATION_DATE  = 
ORIGINATOR     = 

OBJECT_NAME    = STARLINK-36500
OBJECT_ID      = 2026-002R
CENTER_NAME    = EARTH
REF_FRAME      = TEME
TIME_SYSTEM    = UTC
MEAN_ELEMENT_THEORY = SGP/SGP4

EPOCH          = 2026-01-18T22:00:03.000096
MEAN_MOTION    = 15.76467237
ECCENTRICITY   = .00018865
INCLINATION    = 42.9981
RA_OF_ASC_NODE = 251.7305
ARG_OF_PERICENTER = 275.1407
MEAN_ANOMALY   = 146.6903

EPHEMERIS_TYPE = 0
CLASSIFICATION_TYPE = U
NORAD_CAT_ID   = 67320
ELEMENT_SET_NO = 999
REV_AT_EPOCH   = 347
BSTAR          = -.11151265E-1
MEAN_MOTION_DOT = -.1622961E-1
MEAN_MOTION_DDOT = 0

CCSDS_OMM_VERS = 2.0
CREATION_DATE  = 
ORIGINATOR     = 

OBJECT_NAME    = STARLINK-36462
OBJECT_ID      = 2026-002S
CENTER_NAME    = EARTH
REF_FRAME      = TEME
TIME_SYSTEM    = UTC
MEAN_ELEMENT_THEORY = SGP/SGP4

EPOCH          = 2026-01-18T22:00:03.000096
MEAN_MOTION    = 15.76157863
ECCENTRICITY   = .00018795
INCLINATION    = 42.9980
RA_OF_ASC_NODE = 251.7201
ARG_OF_PERICENTER = 269.0452
MEAN_ANOMALY   = 156.9150

EPHEMERIS_TYPE = 0
CLASSIFICATION_TYPE = U
NORAD_CAT_ID   = 67321
ELEMENT_SET_NO = 999
REV_AT_EPOCH   = 341
BSTAR          = -.96103538E-2
MEAN_MOTION_DOT = -.1379492E-1
MEAN_MOTION_DDOT = 0

CCSDS_OMM_VERS = 2.0
CREATION_DATE  = 
ORIGINATOR     = 

OBJECT_NAME    = STARLINK-36434
OBJECT_ID      = 2026-002T
CENTER_NAME    = EARTH
REF_FRAME      = TEME
TIME_SYSTEM    = UTC
MEAN_ELEMENT_THEORY = SGP/SGP4

EPOCH          = 2026-01-18T22:00:03.000096
MEAN_MOTION    = 15.76192254
ECCENTRICITY   = .00018959
INCLINATION    = 42.9981
RA_OF_ASC_NODE = 251.7249
ARG_OF_PERICENTER = 272.6575
MEAN_ANOMALY   = 151.3526

EPHEMERIS_TYPE = 0
CLASSIFICATION_TYPE = U
NORAD_CAT_ID   = 67322
ELEMENT_SET_NO = 999
REV_AT_EPOCH   = 341
BSTAR          = -.97997367E-2
MEAN_MOTION_DOT = -.1405539E-1
MEAN_MOTION_DDOT = 0

CCSDS_OMM_VERS = 2.0
CREATION_DATE  = 
ORIGINATOR     = 

OBJECT_NAME    = STARLINK-36497
OBJECT_ID      = 2026-002U
CENTER_NAME    = EARTH
REF_FRAME      = TEME
TIME_SYSTEM    = UTC
MEAN_ELEMENT_THEORY = SGP/SGP4

EPOCH          = 2026-01-18T22:00:03.000096
MEAN_MOTION    = 15.76017565
ECCENTRICITY   = .00015786
INCLINATION    = 42.9986
RA_OF_ASC_NODE = 251.7152
ARG_OF_PERICENTER = 270.0893
MEAN_ANOMALY   = 157.9074

EPHEMERIS_TYPE = 0
CLASSIFICATION_TYPE = U
NORAD_CAT_ID   = 67323
ELEMENT_SET_NO = 999
REV_AT_EPOCH   = 347
BSTAR          = -.86243438E-2
MEAN_MOTION_DOT = -.1223397E-1
MEAN_MOTION_DDOT = 0

CCSDS_OMM_VERS = 2.0
CREATION_DATE  = 
ORIGINATOR     = 

OBJECT_NAME    = STARLINK-36471
OBJECT_ID      = 2026-002V
CENTER_NAME    = EARTH
REF_FRAME      = TEME
TIME_SYSTEM    = UTC
MEAN_ELEMENT_THEORY = SGP/SGP4

EPOCH          = 2026-01-18T22:00:03.000096
MEAN_MOTION    = 15.75578837
ECCENTRICITY   = .00021346
INCLINATION    = 42.9986
RA_OF_ASC_NODE = 251.7047
ARG_OF_PERICENTER = 268.0915
MEAN_ANOMALY   = 164.0684

EPHEMERIS_TYPE = 0
CLASSIFICATION_TYPE = U
NORAD_CAT_ID   = 67324
ELEMENT_SET_NO = 999
REV_AT_EPOCH   = 341
BSTAR          = -.61159693E-2
MEAN_MOTION_DOT = -.869196E-2
MEAN_MOTION_DDOT = 0

CCSDS_OMM_VERS = 2.0
CREATION_DATE  = 
ORIGINATOR     = 

OBJECT_NAME    = STARLINK-36473
OBJECT_ID      = 2026-002W
CENTER_NAME    = EARTH
REF_FRAME      = TEME
TIME_SYSTEM    = UTC
MEAN_ELEMENT_THEORY = SGP/SGP4

EPOCH          = 2026-01-18T22:00:03.000096
MEAN_MOTION    = 15.75744183
ECCENTRICITY   = .00014097
INCLINATION    = 42.9985
RA_OF_ASC_NODE = 251.7091
ARG_OF_PERICENTER = 273.3201
MEAN_ANOMALY   = 156.8055

EPHEMERIS_TYPE = 0
CLASSIFICATION_TYPE = U
NORAD_CAT_ID   = 67325
ELEMENT_SET_NO = 999
REV_AT_EPOCH   = 357
BSTAR          = -.71120791E-2
MEAN_MOTION_DOT = -.1018328E-1
MEAN_MOTION_DDOT = 0

CCSDS_OMM_VERS = 2.0
CREATION_DATE  = 
ORIGINATOR     = 

OBJECT_NAME    = STARLINK-36430
OBJECT_ID      = 2026-002X
CENTER_NAME    = EARTH
REF_FRAME      = TEME
TIME_SYSTEM    = UTC
MEAN_ELEMENT_THEORY = SGP/SGP4

EPOCH          = 2026-01-18T22:00:03.000096
MEAN_MOTION    = 15.75261853
ECCENTRICITY   = .00014027
INCLINATION    = 42.9985
RA_OF_ASC_NODE = 251.6937
ARG_OF_PERICENTER = 270.8815
MEAN_ANOMALY   = 165.2853

EPHEMERIS_TYPE = 0
CLASSIFICATION_TYPE = U
NORAD_CAT_ID   = 67326
ELEMENT_SET_NO = 999
REV_AT_EPOCH   = 357
BSTAR          = -.24348195E-2
MEAN_MOTION_DOT = -.362399E-2
MEAN_MOTION_DDOT = 0

CCSDS_OMM_VERS = 2.0
CREATION_DATE  = 
ORIGINATOR     = 

OBJECT_NAME    = STARLINK-36501
OBJECT_ID      = 2026-002Y
CENTER_NAME    = EARTH
REF_FRAME      = TEME
TIME_SYSTEM    = UTC
MEAN_ELEMENT_THEORY = SGP/SGP4

EPOCH          = 2026-01-18T22:00:03.000096
MEAN_MOTION    = 15.75366804
ECCENTRICITY   = .00019689
INCLINATION    = 42.9987
RA_OF_ASC_NODE = 251.6991
ARG_OF_PERICENTER = 271.3739
MEAN_ANOMALY   = 162.8033

EPHEMERIS_TYPE = 0
CLASSIFICATION_TYPE = U
NORAD_CAT_ID   = 67327
ELEMENT_SET_NO = 999
REV_AT_EPOCH   = 341
BSTAR          = -.33484764E-2
MEAN_MOTION_DOT = -.49302E-2
MEAN_MOTION_DDOT = 0

CCSDS_OMM_VERS = 2.0
CREATION_DATE  = 
ORIGINATOR     = 

OBJECT_NAME    = STARLINK-36489
OBJECT_ID      = 2026-002Z
CENTER_NAME    = EARTH
REF_FRAME      = TEME
TIME_SYSTEM    = UTC
MEAN_ELEMENT_THEORY = SGP/SGP4

EPOCH          = 2026-01-18T22:00:03.000096
MEAN_MOTION    = 15.75100108
ECCENTRICITY   = .00018435
INCLINATION    = 42.9986
RA_OF_ASC_NODE = 251.6889
ARG_OF_PERICENTER = 278.9893
MEAN_ANOMALY   = 159.1709

EPHEMERIS_TYPE = 0
CLASSIFICATION_TYPE = U
NORAD_CAT_ID   = 67328
ELEMENT_SET_NO = 999
REV_AT_EPOCH   = 357
BSTAR          = -.7757657E-3
MEAN_MOTION_DOT = -.118308E-2
MEAN_MOTION_DDOT = 0

CCSDS_OMM_VERS = 2.0
CREATION_DATE  = 
ORIGINATOR     = 

OBJECT_NAME    = STARLINK-36496
OBJECT_ID      = 2026-002AA
CENTER_NAME    = EARTH
REF_FRAME      = TEME
TIME_SYSTEM    = UTC
MEAN_ELEMENT_THEORY = SGP/SGP4

EPOCH          = 2026-01-18T22:00:03.000096
MEAN_MOTION    = 15.75022980
ECCENTRICITY   = .00015151
INCLINATION    = 42.9985
RA_OF_ASC_NODE = 251.6782
ARG_OF_PERICENTER = 268.1038
MEAN_ANOMALY   = 173.9225

EPHEMERIS_TYPE = 0
CLASSIFICATION_TYPE = U
NORAD_CAT_ID   = 67329
ELEMENT_SET_NO = 999
REV_AT_EPOCH   = 339
BSTAR          = .15954619E-3
MEAN_MOTION_DOT = .24083E-3
MEAN_MOTION_DDOT = 0

CCSDS_OMM_VERS = 2.0
CREATION_DATE  = 
ORIGINATOR     = 

OBJECT_NAME    = STARLINK-36483
OBJECT_ID      = 2026-002AB
CENTER_NAME    = EARTH
REF_FRAME      = TEME
TIME_SYSTEM    = UTC
MEAN_ELEMENT_THEORY = SGP/SGP4

EPOCH          = 2026-01-18T22:00:03.000096
MEAN_MOTION    = 15.75076232
ECCENTRICITY   = .00018615
INCLINATION    = 42.9986
RA_OF_ASC_NODE = 251.6689
ARG_OF_PERICENTER = 263.2176
MEAN_ANOMALY   = 182.6258

EPHEMERIS_TYPE = 0
CLASSIFICATION_TYPE = U
NORAD_CAT_ID   = 67330
ELEMENT_SET_NO = 999
REV_AT_EPOCH   = 357
BSTAR          = -.47386415E-3
MEAN_MOTION_DOT = -.72764E-3
MEAN_MOTION_DDOT = 0

CCSDS_OMM_VERS = 2.0
CREATION_DATE  = 
ORIGINATOR     = 

OBJECT_NAME    = STARLINK-36494
OBJECT_ID      = 2026-002AC
CENTER_NAME    = EARTH
REF_FRAME      = TEME
TIME_SYSTEM    = UTC
MEAN_ELEMENT_THEORY = SGP/SGP4

EPOCH          = 2026-01-18T22:00:03.000096
MEAN_MOTION    = 15.75005126
ECCENTRICITY   = .00014204
INCLINATION    = 42.9986
RA_OF_ASC_NODE = 251.6832
ARG_OF_PERICENTER = 265.4772
MEAN_ANOMALY   = 174.6257

EPHEMERIS_TYPE = 0
CLASSIFICATION_TYPE = U
NORAD_CAT_ID   = 67331
ELEMENT_SET_NO = 999
REV_AT_EPOCH   = 357
BSTAR          = .43267501E-3
MEAN_MOTION_DOT = .6641E-3
MEAN_MOTION_DDOT = 0

CCSDS_OMM_VERS = 2.0
CREATION_DATE  = 
ORIGINATOR     = 

OBJECT_NAME    = STARLINK-36492
OBJECT_ID      = 2026-002AD
CENTER_NAME    = EARTH
REF_FRAME      = TEME
TIME_SYSTEM    = UTC
MEAN_ELEMENT_THEORY = SGP/SGP4

EPOCH          = 2026-01-18T22:00:03.000096
MEAN_MOTION    = 15.74957533
ECCENTRICITY   = .000231
INCLINATION    = 42.9985
RA_OF_ASC_NODE = 251.6734
ARG_OF_PERICENTER = 263.8435
MEAN_ANOMALY   = 180.0915

EPHEMERIS_TYPE = 0
CLASSIFICATION_TYPE = U
NORAD_CAT_ID   = 67332
ELEMENT_SET_NO = 999
REV_AT_EPOCH   = 357
BSTAR          = .11274214E-2
MEAN_MOTION_DOT = .175739E-2
MEAN_MOTION_DDOT = 0

CCSDS_OMM_VERS = 2.0
CREATION_DATE  = 
ORIGINATOR     = 

OBJECT_NAME    = STARLINK-36427
OBJECT_ID      = 2026-002AE
CENTER_NAME    = EARTH
REF_FRAME      = TEME
TIME_SYSTEM    = UTC
MEAN_ELEMENT_THEORY = SGP/SGP4

EPOCH          = 2026-01-18T22:00:03.000096
MEAN_MOTION    = 15.83066411
ECCENTRICITY   = .00016753
INCLINATION    = 42.9943
RA_OF_ASC_NODE = 251.0995
ARG_OF_PERICENTER = 267.5885
MEAN_ANOMALY   = 43.0095

EPHEMERIS_TYPE = 0
CLASSIFICATION_TYPE = U
NORAD_CAT_ID   = 67333
ELEMENT_SET_NO = 999
REV_AT_EPOCH   = 347
BSTAR          = -.97705939E-2
MEAN_MOTION_DOT = -.1890402E-1
MEAN_MOTION_DDOT = 0

CCSDS_OMM_VERS = 2.0
CREATION_DATE  = 
ORIGINATOR     = 

OBJECT_NAME    = STARLINK-35343
OBJECT_ID      = 2026-003A
CENTER_NAME    = EARTH
REF_FRAME      = TEME
TIME_SYSTEM    = UTC
MEAN_ELEMENT_THEORY = SGP/SGP4

EPOCH          = 2026-01-18T22:00:03.000096
MEAN_MOTION    = 15.89016853
ECCENTRICITY   = .00015982
INCLINATION    = 42.9981
RA_OF_ASC_NODE = 155.2640
ARG_OF_PERICENTER = 280.9821
MEAN_ANOMALY   = 332.7526

EPHEMERIS_TYPE = 0
CLASSIFICATION_TYPE = U
NORAD_CAT_ID   = 67334
ELEMENT_SET_NO = 999
REV_AT_EPOCH   = 261
BSTAR          = -.49964208E-2
MEAN_MOTION_DOT = -.1305489E-1
MEAN_MOTION_DDOT = 0

